[
    {
        "Altitude(m)": 605470.7831666236,
        "Argument of Periapsis(deg)": 0.0,
        "Eccentricity": 0.0,
        "Inclination(deg)": 60.0,
        "Latitude(deg)": 27.988183965496713,
        "Longitude(deg)": 37.26289305370414,
        "Mean Anomaly(deg)": -212.72729999999999,
        "RAAN(deg)": 335.0,
        "Satellite Name": "Test1 1483",
        "Satellite Number": 1483,
        "Semi-Major Axis(m)": 6980739.136638005,
        "Time(s)": 0
    },
    {
        "Altitude(m)": 605395.8213265655,
        "Argument of Periapsis(deg)": 0.00010418945913296404,
        "Eccentricity": 0.0,
        "Inclination(deg)": 60.0,
        "Latitude(deg)": 27.473875292809833,
        "Longitude(deg)": 37.61608192661272,
        "Mean Anomaly(deg)": -212.1071938545382,
        "RAAN(deg)": 334.99957995086027,
        "Satellite Name": "Test1 1483",
        "Satellite Number": 1483,
        "Semi-Major Axis(m)": 6980739.136638005,
        "Time(s)": 10
    },
    {
        "Altitude(m)": 605322.662141029,
        "Argument of Periapsis(deg)": 0.0002083789182659281,
        "Eccentricity": 0.0,
        "Inclination(deg)": 60.0,
        "Latitude(deg)": 26.958420819043702,
        "Longitude(deg)": 37.96562258902204,
        "Mean Anomaly(deg)": -211.48708770907638,
        "RAAN(deg)": 334.99915990172053,
        "Satellite Name": "Test1 1483",
        "Satellite Number": 1483,
        "Semi-Major Axis(m)": 6980739.136638005,
        "Time(s)": 20
    },
    {
        "Altitude(m)": 605251.3612844228,
        "Argument of Periapsis(deg)": 0.00031256837739889213,
        "Eccentricity": 0.0,
        "Inclination(deg)": 60.0,
        "Latitude(deg)": 26.441855046724484,
        "Longitude(deg)": 38.31161969071952,
        "Mean Anomaly(deg)": -210.86698156361456,
        "RAAN(deg)": 334.9987398525808,
        "Satellite Name": "Test1 1483",
        "Satellite Number": 1483,
        "Semi-Major Axis(m)": 6980739.136638005,
        "Time(s)": 30
    },
    {
        "Altitude(m)": 605181.9737032268,
        "Argument of Periapsis(deg)": 0.0004167578365318562,
        "Eccentricity": 0.0,
        "Inclination(deg)": 60.0,
        "Latitude(deg)": 25.92421162408198,
        "Longitude(deg)": 38.65417614902061,
        "Mean Anomaly(deg)": -210.2468754181527,
        "RAAN(deg)": 334.99831980344106,
        "Satellite Name": "Test1 1483",
        "Satellite Number": 1483,
        "Semi-Major Axis(m)": 6980739.136638005,
        "Time(s)": 40
    },
    {
        "Altitude(m)": 605114.5535870367,
        "Argument of Periapsis(deg)": 0.0005209472956648203,
        "Eccentricity": 0.0,
        "Inclination(deg)": 60.0,
        "Latitude(deg)": 25.405523377602723,
        "Longitude(deg)": 38.9933922048906,
        "Mean Anomaly(deg)": -209.62676927269084,
        "RAAN(deg)": 334.9978997543013,
        "Satellite Name": "Test1 1483",
        "Satellite Number": 1483,
        "Semi-Major Axis(m)": 6980739.136638005,
        "Time(s)": 50
    },
    {
        "Altitude(m)": 605049.1543399472,
        "Argument of Periapsis(deg)": 0.0006251367547977843,
        "Eccentricity": 0.0,
        "Inclination(deg)": 60.0,
        "Latitude(deg)": 24.885822343467897,
        "Longitude(deg)": 39.32936599114183,
        "Mean Anomaly(deg)": -209.006663127229,
        "RAAN(deg)": 334.99747970516154,
        "Satellite Name": "Test1 1483",
        "Satellite Number": 1483,
        "Semi-Major Axis(m)": 6980739.136638005,
        "Time(s)": 60
    },
    {
        "Altitude(m)": 604985.8285522604,
        "Argument of Periapsis(deg)": 0.0007293262139307483,
        "Eccentricity": 0.0,
        "Inclination(deg)": 60.0,
        "Latitude(deg)": 24.365139797915237,
        "Longitude(deg)": 39.66219409977333,
        "Mean Anomaly(deg)": -208.38655698176717,
        "RAAN(deg)": 334.9970596560218,
        "Satellite Name": "Test1 1483",
        "Satellite Number": 1483,
        "Semi-Major Axis(m)": 6980739.136638005,
        "Time(s)": 70
    },
    {
        "Altitude(m)": 604924.6279725957,
        "Argument of Periapsis(deg)": 0.0008335156730637124,
        "Eccentricity": 0.0,
        "Inclination(deg)": 60.0,
        "Latitude(deg)": 23.84350628655814,
        "Longitude(deg)": 39.99197063553244,
        "Mean Anomaly(deg)": -207.76645083630532,
        "RAAN(deg)": 334.99663960688207,
        "Satellite Name": "Test1 1483",
        "Satellite Number": 1483,
        "Semi-Major Axis(m)": 6980739.136638005,
        "Time(s)": 80
    },
    {
        "Altitude(m)": 604865.6034803105,
        "Argument of Periapsis(deg)": 0.0009377051321966765,
        "Eccentricity": 0.0,
        "Inclination(deg)": 60.0,
        "Latitude(deg)": 23.32095165270723,
        "Longitude(deg)": 40.318787781403664,
        "Mean Anomaly(deg)": -207.14634469084356,
        "RAAN(deg)": 334.99621955774234,
        "Satellite Name": "Test1 1483",
        "Satellite Number": 1483,
        "Semi-Major Axis(m)": 6980739.136638005,
        "Time(s)": 90
    },
    {
        "Altitude(m)": 604808.8050583504,
        "Argument of Periapsis(deg)": 0.0010418945913296407,
        "Eccentricity": 0.0,
        "Inclination(deg)": 60.0,
        "Latitude(deg)": 22.79750506472503,
        "Longitude(deg)": 40.642736363123966,
        "Mean Anomaly(deg)": -206.52623854538172,
        "RAAN(deg)": 334.9957995086026,
        "Satellite Name": "Test1 1483",
        "Satellite Number": 1483,
        "Semi-Major Axis(m)": 6980739.136638005,
        "Time(s)": 100
    },
    {
        "Altitude(m)": 604754.2817664843,
        "Argument of Periapsis(deg)": 0.0011460840504626045,
        "Eccentricity": 0.0,
        "Inclination(deg)": 60.0,
        "Latitude(deg)": 22.27319504245104,
        "Longitude(deg)": 40.96390489982141,
        "Mean Anomaly(deg)": -205.90613239991993,
        "RAAN(deg)": 334.99537945946287,
        "Satellite Name": "Test1 1483",
        "Satellite Number": 1483,
        "Semi-Major Axis(m)": 6980739.136638005,
        "Time(s)": 110
    },
    {
        "Altitude(m)": 604702.0817149502,
        "Argument of Periapsis(deg)": 0.0012502735095955685,
        "Eccentricity": 0.0,
        "Inclination(deg)": 60.0,
        "Latitude(deg)": 21.748049482734046,
        "Longitude(deg)": 41.28238016651158,
        "Mean Anomaly(deg)": -205.28602625445808,
        "RAAN(deg)": 334.99495941032313,
        "Satellite Name": "Test1 1483",
        "Satellite Number": 1483,
        "Semi-Major Axis(m)": 6980739.136638005,
        "Time(s)": 120
    },
    {
        "Altitude(m)": 604652.2520385435,
        "Argument of Periapsis(deg)": 0.0013544629687285324,
        "Eccentricity": 0.0,
        "Inclination(deg)": 60.0,
        "Latitude(deg)": 21.222095684104993,
        "Longitude(deg)": 41.59824775556426,
        "Mean Anomaly(deg)": -204.66592010899623,
        "RAAN(deg)": 334.99453936118334,
        "Satellite Name": "Test1 1483",
        "Satellite Number": 1483,
        "Semi-Major Axis(m)": 6980739.136638005,
        "Time(s)": 130
    },
    {
        "Altitude(m)": 604604.838871133,
        "Argument of Periapsis(deg)": 0.0014586524278614966,
        "Eccentricity": 0.0,
        "Inclination(deg)": 60.0,
        "Latitude(deg)": 20.695360370621206,
        "Longitude(deg)": 41.91159112426014,
        "Mean Anomaly(deg)": -204.04581396353439,
        "RAAN(deg)": 334.9941193120436,
        "Satellite Name": "Test1 1483",
        "Satellite Number": 1483,
        "Semi-Major Axis(m)": 6980739.136638005,
        "Time(s)": 140
    },
    {
        "Altitude(m)": 604559.8873206439,
        "Argument of Periapsis(deg)": 0.0015628418869944607,
        "Eccentricity": 0.0,
        "Inclination(deg)": 60.0,
        "Latitude(deg)": 20.16786971491876,
        "Longitude(deg)": 42.222492154183996,
        "Mean Anomaly(deg)": -203.42570781807257,
        "RAAN(deg)": 334.99369926290393,
        "Satellite Name": "Test1 1483",
        "Satellite Number": 1483,
        "Semi-Major Axis(m)": 6980739.136638005,
        "Time(s)": 150
    },
    {
        "Altitude(m)": 604517.4414445044,
        "Argument of Periapsis(deg)": 0.0016670313461274247,
        "Eccentricity": 0.0,
        "Inclination(deg)": 60.0,
        "Latitude(deg)": 19.6396493605024,
        "Longitude(deg)": 42.531031709582976,
        "Mean Anomaly(deg)": -202.80560167261072,
        "RAAN(deg)": 334.99327921376414,
        "Satellite Name": "Test1 1483",
        "Satellite Number": 1483,
        "Semi-Major Axis(m)": 6980739.136638005,
        "Time(s)": 160
    },
    {
        "Altitude(m)": 604477.5442255877,
        "Argument of Periapsis(deg)": 0.0017712208052603888,
        "Eccentricity": 0.0,
        "Inclination(deg)": 60.0,
        "Latitude(deg)": 19.110724443302235,
        "Longitude(deg)": 42.83728868182109,
        "Mean Anomaly(deg)": -202.18549552714884,
        "RAAN(deg)": 334.9928591646244,
        "Satellite Name": "Test1 1483",
        "Satellite Number": 1483,
        "Semi-Major Axis(m)": 6980739.136638005,
        "Time(s)": 170
    },
    {
        "Altitude(m)": 604440.2375486268,
        "Argument of Periapsis(deg)": 0.001875410264393353,
        "Eccentricity": 0.0,
        "Inclination(deg)": 60.0,
        "Latitude(deg)": 18.581119612529953,
        "Longitude(deg)": 43.14134054568904,
        "Mean Anomaly(deg)": -201.565389381687,
        "RAAN(deg)": 334.9924391154847,
        "Satellite Name": "Test1 1483",
        "Satellite Number": 1483,
        "Semi-Major Axis(m)": 6980739.136638005,
        "Time(s)": 180
    },
    {
        "Altitude(m)": 604405.5621771686,
        "Argument of Periapsis(deg)": 0.0019795997235263173,
        "Eccentricity": 0.0,
        "Inclination(deg)": 60.0,
        "Latitude(deg)": 18.05085905086334,
        "Longitude(deg)": 43.443263914706264,
        "Mean Anomaly(deg)": -200.9452832362252,
        "RAAN(deg)": 334.99201906634494,
        "Satellite Name": "Test1 1483",
        "Satellite Number": 1483,
        "Semi-Major Axis(m)": 6980739.136638005,
        "Time(s)": 190
    }
]